NORAD_CAT_ID,OBJECT_NAME,OBJECT_TYPE,EPOCH,MEAN_MOTION,ECCENTRICITY,INCLINATION,RA_OF_ASC_NODE,ARG_OF_PERICENTER,MEAN_ANOMALY,BSTAR,MEAN_MOTION_DOT,MEAN_MOTION_DDOT,TLE_LINE0,TLE_LINE1,TLE_LINE2,SEMIMAJOR_AXIS,PERIOD,APOGEE,PERIGEE,DECAYED
55756.0,STARLINK-5614,PAYLOAD,2023-12-06 22:20:21,14.98327683,0.0003208,69.9963,161.2597,272.3268,87.7524,5.5997e-06,-2.6e-07,0.0,0 STARLINK-5614,1 55756U 23028R   23340.93080956 -.00000026  00000-0  55997-5 0  9994,2 55756  69.9963 161.2597 0003208 272.3268  87.7524 14.98327683 42657,6950.2,96.107,574.295,569.835,0.0
55756.0,STARLINK-5614,PAYLOAD,2023-12-07 11:09:26,14.983267,0.0003083,69.9973,159.9127,277.9281,82.1528,-2.3988e-05,-3.79e-06,0.0,0 STARLINK-5614,1 55756U 23028R   23341.46489248 -.00000379  00000-0 -23988-4 0  9996,2 55756  69.9973 159.9127 0003083 277.9281  82.1528 14.98326700 42739,6950.203,96.107,574.211,569.925,0.0
55756.0,STARLINK-5614,PAYLOAD,2023-12-07 12:45:34,14.98326563,0.0003094,69.9974,159.7442,277.404,82.6767,-2.5252e-05,-3.94e-06,0.0,0 STARLINK-5614,1 55756U 23028R   23341.53165265 -.00000394  00000-0 -25252-4 0  9997,2 55756  69.9974 159.7442 0003094 277.4040  82.6767 14.98326563 42746,6950.204,96.107,574.219,569.918,0.0
55756.0,STARLINK-5614,PAYLOAD,2023-12-08 11:11:27,14.98326424,0.0002909,69.999,157.3881,271.4385,88.6441,6.4399e-05,6.75e-06,0.0,0 STARLINK-5614,1 55756U 23028R   23342.46629060  .00000675  00000-0  64399-4 0  9993,2 55756  69.9990 157.3881 0002909 271.4385  88.6441 14.98326424 42881,6950.204,96.107,574.091,570.047,0.0
55756.0,STARLINK-5614,PAYLOAD,2023-12-08 12:47:35,14.98327034,0.0002913,69.999,157.22,270.1742,89.9083,6.8534e-05,7.25e-06,0.0,0 STARLINK-5614,1 55756U 23028R   23342.53305013  .00000725  00000-0  68534-4 0  9991,2 55756  69.9990 157.2200 0002913 270.1742  89.9083 14.98327034 42898,6950.202,96.107,574.092,570.042,0.0
55756.0,STARLINK-5614,PAYLOAD,2023-12-09 11:13:28,14.9833153,0.0002908,70.0003,154.8643,268.3865,91.6961,6.3199e-05,6.61e-06,0.0,0 STARLINK-5614,1 55756U 23028R   23343.46768801  .00000661  00000-0  63199-4 0  9993,2 55756  70.0003 154.8643 0002908 268.3865  91.6961 14.98331530 43037,6950.188,96.107,574.074,570.032,0.0
55756.0,STARLINK-5614,PAYLOAD,2023-12-09 12:49:36,14.98331895,0.0002947,70.0005,154.6962,268.0236,92.0586,6.5277e-05,6.86e-06,0.0,0 STARLINK-5614,1 55756U 23028R   23343.53444755  .00000686  00000-0  65277-4 0  9996,2 55756  70.0005 154.6962 0002947 268.0236  92.0586 14.98331895 43046,6950.187,96.107,574.1,570.004,0.0
55756.0,STARLINK-5614,PAYLOAD,2023-12-10 14:27:44,14.98336857,0.000268,69.9988,152.0013,260.7084,99.3772,6.4971e-05,6.82e-06,0.0,0 STARLINK-5614,1 55756U 23028R   23344.60260093  .00000682  00000-0  64971-4 0  9992,2 55756  69.9988 152.0013 0002680 260.7084  99.3772 14.98336857 43204,6950.172,96.107,573.899,570.174,0.0
55756.0,STARLINK-5614,PAYLOAD,2023-12-10 19:16:08,14.98336585,0.0002625,69.9993,151.4969,259.8274,100.2589,6.0545e-05,6.3e-06,0.0,0 STARLINK-5614,1 55756U 23028R   23344.80288035  .00000630  00000-0  60545-4 0  9996,2 55756  69.9993 151.4969 0002625 259.8274 100.2589 14.98336585 43231,6950.173,96.107,573.862,570.213,0.0
55756.0,STARLINK-5614,PAYLOAD,2023-12-10 20:52:16,14.98336857,0.0002697,69.999,151.3283,261.9075,98.1778,6.0258e-05,6.26e-06,0.0,0 STARLINK-5614,1 55756U 23028R   23344.86963976  .00000626  00000-0  60258-4 0  9992,2 55756  69.9990 151.3283 0002697 261.9075  98.1778 14.98336857 43246,6950.172,96.107,573.911,570.162,0.0
55756.0,STARLINK-5614,PAYLOAD,2023-12-11 14:29:45,14.98336841,0.000258,69.9994,149.4773,257.8658,102.2213,1.1123e-05,4e-07,0.0,0 STARLINK-5614,1 55756U 23028R   23345.60399795  .00000040  00000-0  11123-4 0  9994,2 55756  69.9994 149.4773 0002580 257.8658 102.2213 14.98336841 43350,6950.172,96.107,573.83,570.244,0.0
55756.0,STARLINK-5614,PAYLOAD,2023-12-11 19:18:09,14.98333992,0.0002684,69.9992,148.972,261.5283,98.5571,-1.9279e-05,-3.23e-06,0.0,0 STARLINK-5614,1 55756U 23028R   23345.80427996 -.00000323  00000-0 -19279-4 0  9997,2 55756  69.9992 148.9720 0002684 261.5283  98.5571 14.98333992 43386,6950.181,96.107,573.911,570.18,0.0
55756.0,STARLINK-5614,PAYLOAD,2023-12-11 20:54:17,14.98333534,0.0002715,69.9991,148.8035,263.1211,96.9639,-2.6244e-05,-4.06e-06,0.0,0 STARLINK-5614,1 55756U 23028R   23345.87104005 -.00000406  00000-0 -26244-4 0  9999,2 55756  69.9991 148.8035 0002715 263.1211  96.9639 14.98333534 43397,6950.182,96.107,573.934,570.16,0.0
55756.0,STARLINK-5614,PAYLOAD,2023-12-12 12:55:38,14.98334536,0.0002726,69.9991,147.1202,263.7299,96.355,-2.695e-05,-4.15e-06,0.0,0 STARLINK-5614,1 55756U 23028R   23346.53863771 -.00000415  00000-0 -26950-4 0  9999,2 55756  69.9991 147.1202 0002726 263.7299  96.3550 14.98334536 43499,6950.179,96.107,573.938,570.149,0.0
55756.0,STARLINK-5614,PAYLOAD,2023-12-12 19:20:10,14.98333227,0.0002768,69.9991,146.4468,265.3552,94.7291,-4.102e-05,-5.82e-06,0.0,0 STARLINK-5614,1 55756U 23028R   23346.80567829 -.00000582  00000-0 -41020-4 0  9994,2 55756  69.9991 146.4468 0002768 265.3552  94.7291 14.98333227 43536,6950.183,96.107,573.972,570.124,0.0
55756.0,STARLINK-5614,PAYLOAD,2023-12-12 20:56:18,14.98334184,0.0002767,69.9991,146.2787,265.0979,94.9865,-2.9882e-05,-4.5e-06,0.0,0 STARLINK-5614,1 55756U 23028R   23346.87243730 -.00000450  00000-0 -29882-4 0  9999,2 55756  69.9991 146.2787 0002767 265.0979  94.9865 14.98334184 43540,6950.18,96.107,573.968,570.122,0.0
55756.0,STARLINK-5614,PAYLOAD,2023-12-13 14:33:46,14.9833339,0.0002845,69.9991,144.4271,267.399,92.6843,3.5365e-05,3.29e-06,0.0,0 STARLINK-5614,1 55756U 23028R   23347.60679393  .00000329  00000-0  35365-4 0  9995,2 55756  69.9991 144.4271 0002845 267.3990  92.6843 14.98333390 43654,6950.182,96.107,574.025,570.07,0.0
55756.0,STARLINK-5614,PAYLOAD,2023-12-13 19:22:11,14.98333783,0.000284,69.9991,143.9223,267.2127,92.8707,3.8353e-05,3.65e-06,0.0,0 STARLINK-5614,1 55756U 23028R   23347.80707321  .00000365  00000-0  38353-4 0  9990,2 55756  69.9991 143.9223 0002840 267.2127  92.8707 14.98333783 43681,6950.181,96.107,574.02,570.072,0.0
55756.0,STARLINK-5614,PAYLOAD,2023-12-13 20:58:19,14.98334176,0.0002851,69.9991,143.754,267.9753,92.1079,4.153e-05,4.03e-06,0.0,0 STARLINK-5614,1 55756U 23028R   23347.87383272  .00000403  00000-0  41530-4 0  9996,2 55756  69.9991 143.7540 0002851 267.9753  92.1079 14.98334176 43698,6950.18,96.107,574.026,570.063,0.0
55756.0,STARLINK-5614,PAYLOAD,2023-12-14 11:23:32,14.98329354,0.0003016,69.9987,142.2383,271.3835,88.6978,-2.6807e-06,-1.25e-06,0.0,0 STARLINK-5614,1 55756U 23028R   23348.47467654 -.00000125  00000-0 -26807-5 0  9994,2 55756  69.9987 142.2383 0003016 271.3835  88.6978 14.98329354 43786,6950.195,96.107,574.156,569.964,0.0
55756.0,STARLINK-5614,PAYLOAD,2023-12-14 14:35:48,14.98329898,0.0003026,69.9987,141.9017,270.6217,89.4595,-1.5666e-07,-9.5e-07,0.0,0 STARLINK-5614,1 55756U 23028R   23348.60819608 -.00000095  00000-0 -15666-6 0  9997,2 55756  69.9987 141.9017 0003026 270.6217  89.4595 14.98329898 43803,6950.193,96.107,574.161,569.955,0.0
55756.0,STARLINK-5614,PAYLOAD,2023-12-14 21:00:20,14.98333034,0.0003031,69.9987,141.2284,270.6601,89.4211,3.1849e-05,2.87e-06,0.0,0 STARLINK-5614,1 55756U 23028R   23348.87523288  .00000287  00000-0  31849-4 0  9992,2 55756  69.9987 141.2284 0003031 270.6601  89.4211 14.98333034 43841,6950.184,96.107,574.155,569.942,0.0
55756.0,STARLINK-5614,PAYLOAD,2023-12-15 11:25:33,14.98327581,0.000303,69.9987,139.7136,269.8636,90.2176,-6.6495e-05,-8.86e-06,0.0,0 STARLINK-5614,1 55756U 23028R   23349.47607925 -.00000886  00000-0 -66495-4 0  9992,2 55756  69.9987 139.7136 0003030 269.8636  90.2176 14.98327581 43936,6950.2,96.107,574.171,569.959,0.0
55756.0,STARLINK-5614,PAYLOAD,2023-12-15 14:37:49,14.98327962,0.0003046,69.9987,139.377,269.7081,90.3729,-6.0359e-05,-8.13e-06,0.0,0 STARLINK-5614,1 55756U 23028R   23349.60959896 -.00000813  00000-0 -60359-4 0  9997,2 55756  69.9987 139.3770 0003046 269.7081  90.3729 14.98327962 43956,6950.199,96.107,574.181,569.947,0.0
55756.0,STARLINK-5614,PAYLOAD,2023-12-15 19:26:11,14.98358673,0.0002987,69.9988,138.8721,271.344,88.7377,0.00027562,3.2e-05,0.0,0 STARLINK-5614,1 55756U 23028R   23349.80985002  .00003200  00000-0  27562-3 0  9996,2 55756  69.9988 138.8721 0002987 271.3440  88.7377 14.98358673 43984,6950.104,96.105,574.045,569.893,0.0
55756.0,STARLINK-5614,PAYLOAD,2023-12-15 21:02:18,14.98359085,0.0002988,69.9987,138.7035,272.0308,88.0509,0.00027737,3.221e-05,0.0,0 STARLINK-5614,1 55756U 23028R   23349.87660867  .00003221  00000-0  27737-3 0  9999,2 55756  69.9987 138.7035 0002988 272.0308  88.0509 14.98359085 43991,6950.103,96.105,574.045,569.891,0.0
55756.0,STARLINK-5614,PAYLOAD,2023-12-16 03:26:53,14.98323641,0.0003148,69.9988,138.0304,269.6405,90.4393,-0.00011673,-1.485e-05,0.0,0 STARLINK-5614,1 55756U 23028R   23350.14367765 -.00001485  00000-0 -11673-3 0  9996,2 55756  69.9988 138.0304 0003148 269.6405  90.4393 14.98323641 44036,6950.213,96.107,574.265,569.89,0.0
55756.0,STARLINK-5614,PAYLOAD,2023-12-16 14:39:50,14.98324261,0.0003143,69.9988,136.8523,269.1838,90.8961,-1.2042e-05,-2.37e-06,0.0,0 STARLINK-5614,1 55756U 23028R   23350.61099613 -.00000237  00000-0 -12042-4 0  9998,2 55756  69.9988 136.8523 0003143 269.1838  90.8961 14.98324261 44107,6950.211,96.107,574.26,569.891,0.0
55756.0,STARLINK-5614,PAYLOAD,2023-12-16 21:04:22,14.98327871,0.0003144,69.9988,136.1789,269.6454,90.4345,-1.4995e-07,-9.5e-07,0.0,0 STARLINK-5614,1 55756U 23028R   23350.87803389 -.00000095  00000-0 -14995-6 0  9992,2 55756  69.9988 136.1789 0003144 269.6454  90.4345 14.98327871 44140,6950.199,96.107,574.25,569.879,0.0
55756.0,STARLINK-5614,PAYLOAD,2023-12-17 03:28:54,14.98327213,0.0003146,69.9988,135.5055,269.2943,90.7855,-4.4709e-05,-6.26e-06,0.0,0 STARLINK-5614,1 55756U 23028R   23351.14507553 -.00000626  00000-0 -44709-4 0  9991,2 55756  69.9988 135.5055 0003146 269.2943  90.7855 14.98327213 44183,6950.202,96.107,574.253,569.88,0.0
